OBJECT_NAME,OBJECT_ID,EPOCH,MEAN_MOTION,ECCENTRICITY,INCLINATION,RA_OF_ASC_NODE,ARG_OF_PERICENTER,MEAN_ANOMALY,EPHEMERIS_TYPE,CLASSIFICATION_TYPE,NORAD_CAT_ID,ELEMENT_SET_NO,REV_AT_EPOCH,BSTAR,MEAN_MOTION_DOT,MEAN_MOTION_DDOT
IRIDIUM 135,2017-083A,2026-06-19T10:53:39.243552,14.34217276,.00020732,86.3962,321.0675,91.8871,268.2562,0,U,43070,999,44447,-.909554E-5,-.6E-7,0
IRIDIUM 138,2017-083B,2026-06-19T11:30:11.157984,14.34217693,.00023002,86.3980,320.7525,86.9005,273.2454,0,U,43071,999,44446,.12086632E-4,.54E-6,0
IRIDIUM 116,2017-083C,2026-06-19T09:04:03.155520,14.34217411,.00019119,86.3961,321.0854,100.1064,260.0348,0,U,43072,999,44448,-.10797083E-4,-.1E-6,0
IRIDIUM 130,2017-083D,2026-06-19T11:39:18.697248,14.34219744,.0001947,86.3974,321.3155,93.5195,266.6223,0,U,43073,999,44444,.56353709E-4,.178E-5,0
IRIDIUM 151,2017-083E,2026-06-19T09:22:19.240608,14.34217286,.00020542,86.3962,321.1378,93.3197,266.8234,0,U,43074,999,44445,-.911786E-5,-.6E-7,0
IRIDIUM 134,2017-083F,2026-06-19T11:57:35.241984,14.34217084,.00020101,86.3964,321.1009,92.3818,267.7608,0,U,43075,999,44443,-.1622297E-4,-.26E-6,0
IRIDIUM 137,2017-083G,2026-06-19T08:54:55.187712,14.34217466,.00022252,86.3966,321.2468,104.0923,256.0520,0,U,43076,999,44448,-.889345E-5,-.5E-7,0
IRIDIUM 141,2017-083H,2026-06-19T12:06:43.136352,14.34217564,.00021025,86.3960,321.0216,91.0406,269.1031,0,U,43077,999,44450,-.8224693E-5,-.3E-7,0
IRIDIUM 153,2017-083J,2026-06-19T14:18:47.432448,14.34217793,.00022252,86.3962,289.4633,89.9055,270.2396,0,U,43078,999,44562,.977506E-5,.47E-6,0
IRIDIUM 131,2017-083K,2026-06-19T11:48:27.097920,14.34217509,.00022176,86.3971,321.2127,92.0993,268.0457,0,U,43079,999,44443,.23359392E-4,.85E-6,0
IRIDIUM 144,2018-030A,2026-06-19T14:27:55.395072,14.34218070,.00021304,86.3961,289.3896,97.6790,262.4647,0,U,43249,999,43048,.84463239E-4,.256E-5,0
IRIDIUM 149,2018-030B,2026-06-19T07:55:11.453952,14.34217847,.00022709,86.3958,289.4707,93.6543,266.4912,0,U,43250,999,43046,.17407244E-4,.69E-6,0
IRIDIUM 157,2018-030C,2026-06-19T08:22:35.451552,14.34217538,.00020846,86.3958,289.5164,93.8058,266.3376,0,U,43251,999,43044,.494755E-6,.21E-6,0
IRIDIUM 140,2018-030D,2026-06-19T13:51:23.459040,14.34217656,.00021388,86.3960,289.4332,94.1946,265.9494,0,U,43252,999,43053,.1013779E-4,.48E-6,0
IRIDIUM 145,2018-030E,2026-06-19T13:33:07.432704,14.34217648,.00020428,86.3961,289.4107,101.7964,258.3461,0,U,43253,999,43046,.11113413E-4,.51E-6,0
IRIDIUM 146,2018-030F,2026-06-19T14:46:11.290080,14.34216859,.00021129,86.3961,289.4017,97.7988,262.3448,0,U,43254,999,43048,.42895051E-4,.14E-5,0
IRIDIUM 148,2018-030G,2026-06-19T08:59:07.467072,14.34217551,.00021584,86.3958,289.5459,96.2696,263.8746,0,U,43255,999,43048,-.216738E-5,.14E-6,0
IRIDIUM 142,2018-030H,2026-06-19T08:13:27.466464,14.34217349,.00020261,86.3954,289.4479,99.3457,260.7968,0,U,43256,999,43044,-.2696595E-5,.12E-6,0
IRIDIUM 150,2018-030J,2026-06-19T14:09:39.424896,14.34217752,.0002156,86.3961,289.4607,93.9817,266.1625,0,U,43257,999,43050,.8382062E-5,.43E-6,0
IRIDIUM 143,2018-030K,2026-06-19T13:42:15.445440,14.34217800,.00021152,86.3965,289.5614,96.7551,263.3885,0,U,43258,999,43043,.23633265E-4,.86E-6,0
IRIDIUM 161,2018-047C,2026-06-19T12:37:47.541216,14.43279727,.00025686,86.4482,87.4933,83.4449,276.7045,0,U,43478,999,42547,.83751762E-4,.302E-5,0
IRIDIUM 152,2018-047D,2026-06-19T11:22:30.332352,14.34218135,.00023148,86.3956,87.3763,82.6256,277.5203,0,U,43479,999,42281,.78911271E-4,.241E-5,0
IRIDIUM 147,2018-047E,2026-06-19T11:31:38.307072,14.34217695,.00021655,86.3960,87.3789,86.3931,273.7512,0,U,43480,999,42281,.10100649E-4,.48E-6,0
IRIDIUM 110,2018-047F,2026-06-19T11:40:46.334496,14.34218244,.00025524,86.3960,87.4682,81.2825,278.8660,0,U,43481,999,42280,.55002914E-4,.174E-5,0
IRIDIUM 162,2018-047G,2026-06-19T05:49:22.682496,14.43282760,.00022538,86.4481,87.5030,82.4721,277.6736,0,U,43482,999,42542,.757541E-4,.275E-5,0
IRIDIUM 160,2018-061A,2026-06-19T10:22:46.502688,14.34217387,.00021801,86.3958,55.8585,85.7574,274.3870,0,U,43569,999,41369,-.12499619E-4,-.15E-6,0
IRIDIUM 166,2018-061B,2026-06-19T09:18:50.459328,14.34217623,.00020133,86.3958,55.8276,86.9176,273.2250,0,U,43570,999,41371,-.1497736E-5,.16E-6,0
IRIDIUM 158,2018-061C,2026-06-19T10:13:38.476992,14.34217767,.00022016,86.3960,55.8218,82.9318,277.2128,0,U,43571,999,41368,.26253194E-4,.93E-6,0
IRIDIUM 165,2018-061D,2026-06-19T09:09:42.475968,14.34217444,.00020771,86.3961,55.8868,87.2915,272.8518,0,U,43572,999,41370,.10053728E-4,.48E-6,0
IRIDIUM 155,2018-061E,2026-06-19T09:55:22.451520,14.34217795,.00021011,86.3957,55.7424,83.3545,276.7890,0,U,43573,999,41367,.4561847E-5,.33E-6,0
