IRIDIUM 135             
1 43070U 17083A   26170.45392643 -.00000006  00000+0 -90955-5 0  9995
2 43070  86.3962 321.0675 0002073  91.8871 268.2562 14.34217276444471
IRIDIUM 138             
1 43071U 17083B   26170.47929581  .00000054  00000+0  12087-4 0  9995
2 43071  86.3980 320.7525 0002300  86.9005 273.2454 14.34217693444467
IRIDIUM 116             
1 43072U 17083C   26170.37781430 -.00000010  00000+0 -10797-4 0  9994
2 43072  86.3961 321.0854 0001911 100.1064 260.0348 14.34217411444483
IRIDIUM 130             
1 43073U 17083D   26170.48563307  .00000178  00000+0  56354-4 0  9990
2 43073  86.3974 321.3155 0001947  93.5195 266.6223 14.34219744444445
IRIDIUM 151             
1 43074U 17083E   26170.39050047 -.00000006  00000+0 -91179-5 0  9990
2 43074  86.3962 321.1378 0002054  93.3197 266.8234 14.34217286444452
IRIDIUM 134             
1 43075U 17083F   26170.49832456 -.00000026  00000+0 -16223-4 0  9992
2 43075  86.3964 321.1009 0002010  92.3818 267.7608 14.34217084444436
IRIDIUM 137             
1 43076U 17083G   26170.37147208 -.00000005  00000+0 -88935-5 0  9991
2 43076  86.3966 321.2468 0002225 104.0923 256.0520 14.34217466444488
IRIDIUM 141             
1 43077U 17083H   26170.50466593 -.00000003  00000+0 -82247-5 0  9996
2 43077  86.3960 321.0216 0002102  91.0406 269.1031 14.34217564444501
IRIDIUM 153             
1 43078U 17083J   26170.59638232  .00000047  00000+0  97751-5 0  9999
2 43078  86.3962 289.4633 0002225  89.9055 270.2396 14.34217793445621
IRIDIUM 131             
1 43079U 17083K   26170.49198030  .00000085  00000+0  23359-4 0  9990
2 43079  86.3971 321.2127 0002217  92.0993 268.0457 14.34217509444438
IRIDIUM 144             
1 43249U 18030A   26170.60272448  .00000256  00000+0  84463-4 0  9994
2 43249  86.3961 289.3896 0002130  97.6790 262.4647 14.34218070430486
IRIDIUM 149             
1 43250U 18030B   26170.32999368  .00000069  00000+0  17407-4 0  9998
2 43250  86.3958 289.4707 0002270  93.6543 266.4912 14.34217847430461
IRIDIUM 157             
1 43251U 18030C   26170.34902143  .00000021  00000+0  49476-6 0  9997
2 43251  86.3958 289.5164 0002084  93.8058 266.3376 14.34217538430444
IRIDIUM 140             
1 43252U 18030D   26170.57735485  .00000048  00000+0  10138-4 0  9996
2 43252  86.3960 289.4332 0002138  94.1946 265.9494 14.34217656430531
IRIDIUM 145             
1 43253U 18030E   26170.56466936  .00000051  00000+0  11113-4 0  9996
2 43253  86.3961 289.4107 0002042 101.7964 258.3461 14.34217648430465
IRIDIUM 146             
1 43254U 18030F   26170.61540845  .00000140  00000+0  42895-4 0  9995
2 43254  86.3961 289.4017 0002112  97.7988 262.3448 14.34216859430489
IRIDIUM 148             
1 43255U 18030G   26170.37439198  .00000014  00000+0 -21674-5 0  9991
2 43255  86.3958 289.5459 0002158  96.2696 263.8746 14.34217551430484
IRIDIUM 142             
1 43256U 18030H   26170.34267901  .00000012  00000+0 -26966-5 0  9997
2 43256  86.3954 289.4479 0002026  99.3457 260.7968 14.34217349430448
IRIDIUM 150             
1 43257U 18030J   26170.59003964  .00000043  00000+0  83821-5 0  9998
2 43257  86.3961 289.4607 0002156  93.9817 266.1625 14.34217752430509
IRIDIUM 143             
1 43258U 18030K   26170.57101210  .00000086  00000+0  23633-4 0  9991
2 43258  86.3965 289.5614 0002115  96.7551 263.3885 14.34217800430437
IRIDIUM 161             
1 43478U 18047C   26170.52624469  .00000302  00000+0  83752-4 0  9993
2 43478  86.4482  87.4933 0002568  83.4449 276.7045 14.43279727425476
IRIDIUM 152             
1 43479U 18047D   26170.47396218  .00000241  00000+0  78911-4 0  9999
2 43479  86.3956  87.3763 0002314  82.6256 277.5203 14.34218135422814
IRIDIUM 147             
1 43480U 18047E   26170.48030448  .00000048  00000+0  10101-4 0  9994
2 43480  86.3960  87.3789 0002165  86.3931 273.7512 14.34217695422815
IRIDIUM 110             
1 43481U 18047F   26170.48664739  .00000174  00000+0  55003-4 0  9991
2 43481  86.3960  87.4682 0002552  81.2825 278.8660 14.34218244422805
IRIDIUM 162             
1 43482U 18047G   26170.24262364  .00000275  00000+0  75754-4 0  9991
2 43482  86.4481  87.5030 0002253  82.4721 277.6736 14.43282760425425
IRIDIUM 160             
1 43569U 18061A   26170.43248267 -.00000015  00000+0 -12500-4 0  9994
2 43569  86.3958  55.8585 0002180  85.7574 274.3870 14.34217387413695
IRIDIUM 166             
1 43570U 18061B   26170.38808402  .00000016  00000+0 -14977-5 0  9994
2 43570  86.3958  55.8276 0002013  86.9176 273.2250 14.34217623413716
IRIDIUM 158             
1 43571U 18061C   26170.42613978  .00000093  00000+0  26253-4 0  9995
2 43571  86.3960  55.8218 0002201  82.9318 277.2128 14.34217767413682
IRIDIUM 165             
1 43572U 18061D   26170.38174162  .00000048  00000+0  10054-4 0  9990
2 43572  86.3961  55.8868 0002077  87.2915 272.8518 14.34217444413706
IRIDIUM 155             
1 43573U 18061E   26170.41345430  .00000033  00000+0  45618-5 0  9992
2 43573  86.3957  55.7424 0002101  83.3545 276.7890 14.34217795413674
